#aV2007  7 10  0  0   .00000000      96 DD+AD WGS84 FIT  NGA
## 1435 172800.00000000   900.00000000 54291  .0000000000000
+   31     1  2  3  4  5  6  7  8  9 10 11 12 13 14 16 17 18
+         19 20 21 22 23 24 25 26 27 28 29 30 31 32  0  0  0
+          0  0  0  0  0  0  0  0  0  0  0  0  0  0  0  0  0
+          0  0  0  0  0  0  0  0  0  0  0  0  0  0  0  0  0
+          0  0  0  0  0  0  0  0  0  0  0  0  0  0  0  0  0
++         0  0  0  0  0  0  0  0  0  0  0  0  0  0  0  0  0
++         0  0  0  0  0  0  0  0  0  0  0  0  0  0  0  0  0
++         0  0  0  0  0  0  0  0  0  0  0  0  0  0  0  0  0
++         0  0  0  0  0  0  0  0  0  0  0  0  0  0  0  0  0
++         0  0  0  0  0  0  0  0  0  0  0  0  0  0  0  0  0
%c cc cc ccc ccc cccc cccc cccc cccc ccccc ccccc ccccc ccccc
%c cc cc ccc ccc cccc cccc cccc cccc ccccc ccccc ccccc ccccc
%f  0.0000000  0.000000000  0.00000000000  0.000000000000000
%f  0.0000000  0.000000000  0.00000000000  0.000000000000000
%i    0    0    0    0      0      0      0      0         0
%i    0    0    0    0      0      0      0      0         0
/*      NGA, ST. LOUIS,MO.                                  
/*   EPHEMERIS COMPUTED FROM  3 DAYS OF DATA                
/* CCCCCCCCCCCCCCCCCCCCCCCCCCCCCCCCCCCCCCCCCCCCCCCCCCCCCCCCC
/* CCCCCCCCCCCCCCCCCCCCCCCCCCCCCCCCCCCCCCCCCCCCCCCCCCCCCCCCC
*  2007  7 10  3 45   .00000000                                                 
P  1  20023.952525  15549.125321   8234.914130    139.007794                    
V  1  -9846.699427  -2873.718241  30058.116725       .022410                    
P  2 -13312.838739 -17746.842136 -15019.997297    120.412352                    
V  2   -384.610805 -18755.693074  22516.147828       .028431                    
P  3  24392.324031  10384.366936  -3729.464481     84.356188                    
V  3  -5306.124937   2098.599796 -30262.096427       .054747                    
P  4  -6744.344852 -24940.799725  -5339.802494      7.230091                    
V  4   2700.529109  -7137.245710  30649.172623      -.013854                    
P  5 -21155.764665  15359.316432   3954.768487    159.902559                    
V  5   1560.177423  -6241.229440  30854.604006       .460907                    
P  6 -13483.015495  10781.260189 -20003.399107    232.162613                    
V  6 -23833.369249 -10259.326084  10396.734596       .066057                    
P  7 -10203.850232  12633.205548 -20677.356400    212.988120                    
V  7 -25406.694010  -9602.028234   6506.392442      -.200623                    
P  8    845.860598 -25960.684336  -4357.895543   -114.296711                    
V  8   2986.992964   5226.993726 -31807.162974      -.014596                    
P  9 -14492.022090   3050.727750  21441.975078     78.038489                    
V  9  -4890.561439 -28251.240743    901.362210       .015965                    
P 10 -16307.992961  -5517.747704 -20425.661142    104.493330                    
V 10  20248.980355 -15627.666449 -11703.463002       .006154                    
P 11  15459.929401  -6098.372381  20598.078869     20.163026                    
V 11   8241.060317  25436.784455   1636.407241       .007373                    
P 12 -23028.455931   9970.442300   8703.313885    -49.008139                    
V 12   7112.179699  -8686.409956  29180.798025      -.010905                    
P 13  12217.553598  -9789.651983 -21555.623829    188.620664                    
V 13  24353.148065  11750.298675   8539.774104       .032208                    
P 14   7959.807343  17090.749793  18825.039424     29.158340                    
V 14 -21997.641637  -8698.403986  17189.084694       .019667                    
P 16  11343.947835  10286.268772 -21631.272727    161.548599                    
V 16 -22074.498012  16631.761190  -3499.254800       .026634                    
P 17  -5581.341280 -17231.557223  19488.823186     61.743857                    
V 17  23168.341413   8560.139978  14086.009108      -.012886                    
P 18 -14842.211158  19324.979344  10278.059080   -244.851574                    
V 18 -12312.132473   5038.084186 -27983.815047       .012491                    
P 19  24736.608554   6159.036212   7788.088449     49.493074                    
V 19   7542.938376   6674.235947 -29498.950642       .029740                    
P 20  22725.525389 -12160.254862   6244.231249    -26.596193                    
V 20  -4508.964259   7347.651626  30237.297988      -.004491                    
P 21  -6768.349144  22248.544969 -12140.258799     78.531661                    
V 21  -4869.609800 -15496.903843 -25994.549302       .002225                    
P 22  -3406.169131  18634.465217  18755.647322    190.055688                    
V 22 -20266.291446  12084.934568 -15856.720069       .016330                    
P 23  20975.911345  -3224.718936 -16187.222075    180.562429                    
V 23  18120.758683   9259.856546  21538.171811       .032342                    
P 24 -12836.914757  12544.187933 -19466.316915     13.961861                    
V 24  -3097.852730 -24922.908718 -13590.022738       .030009                    
P 25   8800.137785 -17395.819585 -17743.486766    358.992420                    
V 25   6710.980372  22278.647678 -17994.230280       .178277                    
P 26 -25006.446895  -8928.682994   3631.497948   -297.959589                    
V 26  -4047.546277  -3372.080080 -31639.335433      -.219591                    
P 27   4337.461119 -22671.556935 -12288.350515    121.683165                    
V 27   5659.675232  15938.364804 -26278.379772       .023452                    
P 28   6645.927440 -19444.751596  16974.364225     -2.662282                    
V 28  18126.343312 -10847.546067 -20263.173894      -.007923                    
P 29 -24681.651556 -10364.298979    -44.651821      4.402182                    
V 29    897.348926  -1361.810859 -32110.218900       .002788                    
P 30 -19252.348809  18090.789593  -2385.501716     39.078901                    
V 30  -4174.647783   -869.779546  31319.441867       .010858                    
P 31   8164.738672  24166.911195  -7069.483465     16.077140                    
V 31  -1450.218078   9523.520728  30128.591345      -.009431                    
P 32   9079.711620  12152.801360  22266.940329    501.390369                    
V 32 -22751.977921  14746.249208   1381.092243       .209049                    
EOF
